CCSDS_OMM_VERS = 2.0
CREATION_DATE  = 
ORIGINATOR     = 

OBJECT_NAME    = ALOS (DAICHI)
OBJECT_ID      = 2006-002A
CENTER_NAME    = EARTH
REF_FRAME      = TEME
TIME_SYSTEM    = UTC
MEAN_ELEMENT_THEORY = SGP/SGP4

EPOCH          = 2026-01-23T20:12:40.387968
MEAN_MOTION    = 14.69644204
ECCENTRICITY   = .00022036
INCLINATION    = 98.1154
RA_OF_ASC_NODE = 340.0501
ARG_OF_PERICENTER = 81.8971
MEAN_ANOMALY   = 278.2485

EPHEMERIS_TYPE = 0
CLASSIFICATION_TYPE = U
NORAD_CAT_ID   = 28931
ELEMENT_SET_NO = 999
REV_AT_EPOCH   = 6689
BSTAR          = .40996343E-3
MEAN_MOTION_DOT = .2389E-4
MEAN_MOTION_DDOT = 0

CCSDS_OMM_VERS = 2.0
CREATION_DATE  = 
ORIGINATOR     = 

OBJECT_NAME    = H-2A R/B
OBJECT_ID      = 2006-002B
CENTER_NAME    = EARTH
REF_FRAME      = TEME
TIME_SYSTEM    = UTC
MEAN_ELEMENT_THEORY = SGP/SGP4

EPOCH          = 2026-01-24T02:54:19.971072
MEAN_MOTION    = 15.15500496
ECCENTRICITY   = .0053992
INCLINATION    = 98.2347
RA_OF_ASC_NODE = 167.3686
ARG_OF_PERICENTER = 34.0357
MEAN_ANOMALY   = 326.4317

EPHEMERIS_TYPE = 0
CLASSIFICATION_TYPE = U
NORAD_CAT_ID   = 28932
ELEMENT_SET_NO = 999
REV_AT_EPOCH   = 8768
BSTAR          = .71655E-3
MEAN_MOTION_DOT = .14015E-3
MEAN_MOTION_DDOT = 0

CCSDS_OMM_VERS = 2.0
CREATION_DATE  = 
ORIGINATOR     = 

OBJECT_NAME    = RESURS-DK 1
OBJECT_ID      = 2006-021A
CENTER_NAME    = EARTH
REF_FRAME      = TEME
TIME_SYSTEM    = UTC
MEAN_ELEMENT_THEORY = SGP/SGP4

EPOCH          = 2026-01-24T03:53:31.601184
MEAN_MOTION    = 15.12448661
ECCENTRICITY   = .0005134
INCLINATION    = 69.9348
RA_OF_ASC_NODE = 352.1789
ARG_OF_PERICENTER = 217.8314
MEAN_ANOMALY   = 142.2492

EPHEMERIS_TYPE = 0
CLASSIFICATION_TYPE = U
NORAD_CAT_ID   = 29228
ELEMENT_SET_NO = 999
REV_AT_EPOCH   = 8079
BSTAR          = .28074E-3
MEAN_MOTION_DOT = .4788E-4
MEAN_MOTION_DDOT = 0

CCSDS_OMM_VERS = 2.0
CREATION_DATE  = 
ORIGINATOR     = 

OBJECT_NAME    = CZ-4B R/B
OBJECT_ID      = 2006-046C
CENTER_NAME    = EARTH
REF_FRAME      = TEME
TIME_SYSTEM    = UTC
MEAN_ELEMENT_THEORY = SGP/SGP4

EPOCH          = 2026-01-23T22:38:13.271424
MEAN_MOTION    = 15.16380578
ECCENTRICITY   = .0035009
INCLINATION    = 97.5676
RA_OF_ASC_NODE = 68.9681
ARG_OF_PERICENTER = 63.8774
MEAN_ANOMALY   = 296.6054

EPHEMERIS_TYPE = 0
CLASSIFICATION_TYPE = U
NORAD_CAT_ID   = 29507
ELEMENT_SET_NO = 999
REV_AT_EPOCH   = 5326
BSTAR          = .4289E-3
MEAN_MOTION_DOT = .8391E-4
MEAN_MOTION_DDOT = 0

CCSDS_OMM_VERS = 2.0
CREATION_DATE  = 
ORIGINATOR     = 

OBJECT_NAME    = CZ-2C R/B
OBJECT_ID      = 2007-010B
CENTER_NAME    = EARTH
REF_FRAME      = TEME
TIME_SYSTEM    = UTC
MEAN_ELEMENT_THEORY = SGP/SGP4

EPOCH          = 2026-01-23T13:36:43.412832
MEAN_MOTION    = 14.20229144
ECCENTRICITY   = .00600175
INCLINATION    = 98.3971
RA_OF_ASC_NODE = 139.1133
ARG_OF_PERICENTER = 65.9643
MEAN_ANOMALY   = 294.7800

EPHEMERIS_TYPE = 0
CLASSIFICATION_TYPE = U
NORAD_CAT_ID   = 31114
ELEMENT_SET_NO = 999
REV_AT_EPOCH   = 97331
BSTAR          = .14833846E-3
MEAN_MOTION_DOT = .282E-5
MEAN_MOTION_DDOT = 0

CCSDS_OMM_VERS = 2.0
CREATION_DATE  = 
ORIGINATOR     = 

OBJECT_NAME    = COSMO-SKYMED 1
OBJECT_ID      = 2007-023A
CENTER_NAME    = EARTH
REF_FRAME      = TEME
TIME_SYSTEM    = UTC
MEAN_ELEMENT_THEORY = SGP/SGP4

EPOCH          = 2026-01-24T04:41:35.202048
MEAN_MOTION    = 14.96147017
ECCENTRICITY   = .0001237
INCLINATION    = 97.8844
RA_OF_ASC_NODE = 214.8853
ARG_OF_PERICENTER = 90.2671
MEAN_ANOMALY   = 269.8692

EPHEMERIS_TYPE = 0
CLASSIFICATION_TYPE = U
NORAD_CAT_ID   = 31598
ELEMENT_SET_NO = 999
REV_AT_EPOCH   = 825
BSTAR          = .62281E-3
MEAN_MOTION_DOT = .6956E-4
MEAN_MOTION_DDOT = 0

CCSDS_OMM_VERS = 2.0
CREATION_DATE  = 
ORIGINATOR     = 

OBJECT_NAME    = COSMOS 2428
OBJECT_ID      = 2007-029A
CENTER_NAME    = EARTH
REF_FRAME      = TEME
TIME_SYSTEM    = UTC
MEAN_ELEMENT_THEORY = SGP/SGP4

EPOCH          = 2026-01-24T03:30:07.068096
MEAN_MOTION    = 14.12919204
ECCENTRICITY   = .0006252
INCLINATION    = 70.9402
RA_OF_ASC_NODE = 296.8488
ARG_OF_PERICENTER = 327.6288
MEAN_ANOMALY   = 32.4449

EPHEMERIS_TYPE = 0
CLASSIFICATION_TYPE = U
NORAD_CAT_ID   = 31792
ELEMENT_SET_NO = 999
REV_AT_EPOCH   = 95780
BSTAR          = .29021E-3
MEAN_MOTION_DOT = .493E-5
MEAN_MOTION_DDOT = 0

CCSDS_OMM_VERS = 2.0
CREATION_DATE  = 
ORIGINATOR     = 

OBJECT_NAME    = SL-16 R/B
OBJECT_ID      = 2007-029B
CENTER_NAME    = EARTH
REF_FRAME      = TEME
TIME_SYSTEM    = UTC
MEAN_ELEMENT_THEORY = SGP/SGP4

EPOCH          = 2026-01-24T02:26:42.989280
MEAN_MOTION    = 14.14822309
ECCENTRICITY   = .0001965
INCLINATION    = 70.9739
RA_OF_ASC_NODE = 266.1117
ARG_OF_PERICENTER = 272.1413
MEAN_ANOMALY   = 194.9131

EPHEMERIS_TYPE = 0
CLASSIFICATION_TYPE = U
NORAD_CAT_ID   = 31793
ELEMENT_SET_NO = 999
REV_AT_EPOCH   = 95906
BSTAR          = .12172E-4
MEAN_MOTION_DOT = -.24E-6
MEAN_MOTION_DDOT = 0

CCSDS_OMM_VERS = 2.0
CREATION_DATE  = 
ORIGINATOR     = 

OBJECT_NAME    = KORONAS-FOTON
OBJECT_ID      = 2009-003A
CENTER_NAME    = EARTH
REF_FRAME      = TEME
TIME_SYSTEM    = UTC
MEAN_ELEMENT_THEORY = SGP/SGP4

EPOCH          = 2026-01-24T01:46:57.455904
MEAN_MOTION    = 15.42152496
ECCENTRICITY   = .00099
INCLINATION    = 82.4332
RA_OF_ASC_NODE = 322.2120
ARG_OF_PERICENTER = 329.1510
MEAN_ANOMALY   = 30.9154

EPHEMERIS_TYPE = 0
CLASSIFICATION_TYPE = U
NORAD_CAT_ID   = 33504
ELEMENT_SET_NO = 999
REV_AT_EPOCH   = 93886
BSTAR          = .39939E-3
MEAN_MOTION_DOT = .17184E-3
MEAN_MOTION_DDOT = 0

CCSDS_OMM_VERS = 2.0
CREATION_DATE  = 
ORIGINATOR     = 

OBJECT_NAME    = CZ-2C R/B
OBJECT_ID      = 2011-030B
CENTER_NAME    = EARTH
REF_FRAME      = TEME
TIME_SYSTEM    = UTC
MEAN_ELEMENT_THEORY = SGP/SGP4

EPOCH          = 2026-01-23T21:09:39.420864
MEAN_MOTION    = 14.81046142
ECCENTRICITY   = .00537369
INCLINATION    = 97.8477
RA_OF_ASC_NODE = 342.0728
ARG_OF_PERICENTER = 134.9662
MEAN_ANOMALY   = 246.8856

EPHEMERIS_TYPE = 0
CLASSIFICATION_TYPE = U
NORAD_CAT_ID   = 37731
ELEMENT_SET_NO = 999
REV_AT_EPOCH   = 78346
BSTAR          = .25976562E-3
MEAN_MOTION_DOT = .2011E-4
MEAN_MOTION_DDOT = 0

CCSDS_OMM_VERS = 2.0
CREATION_DATE  = 
ORIGINATOR     = 

OBJECT_NAME    = H-2A R/B
OBJECT_ID      = 2012-025E
CENTER_NAME    = EARTH
REF_FRAME      = TEME
TIME_SYSTEM    = UTC
MEAN_ELEMENT_THEORY = SGP/SGP4

EPOCH          = 2026-01-23T21:13:27.434784
MEAN_MOTION    = 14.94757127
ECCENTRICITY   = .0046095
INCLINATION    = 98.4656
RA_OF_ASC_NODE = 347.3866
ARG_OF_PERICENTER = 98.9532
MEAN_ANOMALY   = 261.6908

EPHEMERIS_TYPE = 0
CLASSIFICATION_TYPE = U
NORAD_CAT_ID   = 38341
ELEMENT_SET_NO = 999
REV_AT_EPOCH   = 74152
BSTAR          = .49417E-3
MEAN_MOTION_DOT = .5417E-4
MEAN_MOTION_DDOT = 0

CCSDS_OMM_VERS = 2.0
CREATION_DATE  = 
ORIGINATOR     = 

OBJECT_NAME    = SHIJIAN-16 (SJ-16)
OBJECT_ID      = 2013-057A
CENTER_NAME    = EARTH
REF_FRAME      = TEME
TIME_SYSTEM    = UTC
MEAN_ELEMENT_THEORY = SGP/SGP4

EPOCH          = 2026-01-24T04:18:39.715776
MEAN_MOTION    = 14.92196113
ECCENTRICITY   = .0017702
INCLINATION    = 74.9718
RA_OF_ASC_NODE = 269.3442
ARG_OF_PERICENTER = 221.6631
MEAN_ANOMALY   = 138.3210

EPHEMERIS_TYPE = 0
CLASSIFICATION_TYPE = U
NORAD_CAT_ID   = 39358
ELEMENT_SET_NO = 999
REV_AT_EPOCH   = 66486
BSTAR          = .28997E-3
MEAN_MOTION_DOT = .2934E-4
MEAN_MOTION_DDOT = 0

